{
    "links": {
        "self": "http://www.neowsapp.com/rest/v1/neo/3892185?api_key=iIulBulltgU6a56xZRHN4H3l9WmuAYTsLGpBGhQ2"
    },
    "id": "3892185",
    "neo_reference_id": "3892185",
    "name": "(2019 UY13)",
    "designation": "2019 UY13",
    "nasa_jpl_url": "http://ssd.jpl.nasa.gov/sbdb.cgi?sstr=3892185",
    "absolute_magnitude_h": 23.3,
    "estimated_diameter": {
        "kilometers": {
            "estimated_diameter_min": 0.058150704,
            "estimated_diameter_max": 0.130028927
        },
        "meters": {
            "estimated_diameter_min": 58.1507039646,
            "estimated_diameter_max": 130.0289270043
        },
        "miles": {
            "estimated_diameter_min": 0.0361331611,
            "estimated_diameter_max": 0.0807962044
        },
        "feet": {
            "estimated_diameter_min": 190.7831555951,
            "estimated_diameter_max": 426.6041048727
        }
    },
    "is_potentially_hazardous_asteroid": false,
    "close_approach_data": [
        {
            "close_approach_date": "2019-11-15",
            "close_approach_date_full": "2019-Nov-15 21:14",
            "epoch_date_close_approach": 1573852440000,
            "relative_velocity": {
                "kilometers_per_second": "21.5441919106",
                "kilometers_per_hour": "77559.0908779994",
                "miles_per_hour": "48192.2028847214"
            },
            "miss_distance": {
                "astronomical": "0.0770218484",
                "lunar": "29.9614990276",
                "kilometers": "11522304.464102908",
                "miles": "7159627.9976318104"
            },
            "orbiting_body": "Earth"
        },
        {
            "close_approach_date": "2022-04-25",
            "close_approach_date_full": "2022-Apr-25 19:57",
            "epoch_date_close_approach": 1650916620000,
            "relative_velocity": {
                "kilometers_per_second": "20.6433118184",
                "kilometers_per_hour": "74315.922546271",
                "miles_per_hour": "46177.0242065982"
            },
            "miss_distance": {
                "astronomical": "0.1875757833",
                "lunar": "72.9669797037",
                "kilometers": "28060937.645261571",
                "miles": "17436258.1227328398"
            },
            "orbiting_body": "Earth"
        }
    ],
    "orbital_data": {
        "orbit_id": "3",
        "orbit_determination_date": "2019-11-22 04:56:17",
        "first_observation_date": "2019-10-31",
        "last_observation_date": "2019-11-16",
        "data_arc_in_days": 16,
        "observations_used": 31,
        "orbit_uncertainty": "8",
        "minimum_orbit_intersection": ".0687856",
        "jupiter_tisserand_invariant": "3.951",
        "epoch_osculation": "2458788.5",
        "eccentricity": ".5369278244992797",
        "semi_major_axis": "1.650575966944005",
        "inclination": "32.86425585358091",
        "ascending_node_longitude": "47.66592346195981",
        "orbital_period": "774.5540031195306",
        "perihelion_distance": ".7643358038419655",
        "perihelion_argument": "80.8863641050411",
        "aphelion_distance": "2.536816130046045",
        "perihelion_time": "2458856.159038646137",
        "mean_anomaly": "328.5531882676869",
        "mean_motion": ".4647836026282136",
        "equinox": "J2000",
        "orbit_class": {
            "orbit_class_type": "APO",
            "orbit_class_description": "Near-Earth asteroid orbits which cross the Earth’s orbit similar to that of 1862 Apollo",
            "orbit_class_range": "a (semi-major axis) > 1.0 AU; q (perihelion) < 1.017 AU"
        }
    },
    "is_sentry_object": false
}